STARLINK-32393          
1 61862U 24202T   26068.47224197  .00000327  00000+0  21414-4 0  9998
2 61862  43.0016 239.2823 0001732 279.9745  80.0911 15.27579329 75308
FLOCK 4G-8              
1 62613U 25009E   26068.72381419  .00013559  00000+0  50438-3 0  9996
2 62613  97.4045 151.2834 0003050 315.2538  44.8455 15.27623414 63721
